IRIDIUM 22              
1 24907U 97043E   25228.32224733  .00000297  00000+0  95568-4 0  9994
2 24907  86.3916  88.9444 0002125  90.1933 269.9508 14.35991198465407
DUMMY MASS 1            
1 24925U 97048A   25228.64512782  .00000320  00000+0  32605-4 0  9998
2 24925  86.3331 107.3786 0004510 304.3698  55.7100 14.87028046514113
DUMMY MASS 2            
1 24926U 97048B   25228.41543891  .00000314  00000+0  32106-4 0  9998
2 24926  86.3335 109.1041 0005622 319.3997  40.6808 14.86779844513851
IRIDIUM 29              
1 24944U 97051A   25228.39334986  .00000318  00000+0  10173-3 0  9995
2 24944  86.3962 118.6537 0002369  85.3066 274.8401 14.36509140461918
IRIDIUM 33              
1 24946U 97051C   25228.44136534  .00000242  00000+0  78254-4 0  9993
2 24946  86.3876 117.8988 0005949 233.4499 126.6150 14.34924321461384
IRIDIUM 28              
1 24948U 97051E   25228.67688803  .00000254  00000+0  78359-4 0  9990
2 24948  86.3962 116.0153 0001680  91.7505 268.3885 14.37420827462608
IRIDIUM 36              
1 24967U 97056C   25228.49154603  .00000283  00000+0  87858-4 0  9998
2 24967  86.4022 147.6895 0002166  92.3269 267.8177 14.37648348460880
